ONEWEB-0153             
1 48044U 21025C   23256.25907642  .00000444  00000+0  11798-2 0  9992
2 48044  87.9079 160.7430 0001923  70.9794 289.1544 13.13472058121230
ONEWEB-0154             
1 48045U 21025D   23256.25696794  .00000658  00000+0  17658-2 0  9994
2 48045  87.9085 160.7526 0001964  73.8382 286.2963 13.13469869121198
ONEWEB-0116             
1 48046U 21025E   23256.29926723 -.00000568  00000+0 -15892-2 0  9997
2 48046  87.9078 160.7150 0001928  84.1427 275.9922 13.13469814121346
ONEWEB-0150             
1 48047U 21025F   23256.27177259  .00000363  00000+0  95979-3 0  9994
2 48047  87.9084 160.7445 0001769  70.2185 289.9135 13.13471790121236
ONEWEB-0107             
1 48048U 21025G   23256.27390377  .00000360  00000+0  95059-3 0  9999
2 48048  87.9083 160.7425 0001703  62.7152 297.4150 13.13471801121214
ONEWEB-0101             
1 48049U 21025H   23256.23792013 -.00000067  00000+0 -21916-3 0  9996
2 48049  87.9078 160.7597 0002020  70.7467 289.3881 13.13468452121185
ONEWEB-0113             
1 48050U 21025J   23256.29081944 -.00000142  00000+0 -42338-3 0  9993
2 48050  87.9023 160.7759 0001978  78.9344 281.2008 13.13471448121273
ONEWEB-0112             
1 48051U 21025K   23256.27811683  .00000214  00000+0  54986-3 0  9993
2 48051  87.9083 160.7398 0001776  74.9102 285.2223 13.13467726121281
